INTELSAT 902 (IS-902)   
1 26900U 01039A   26162.68450689 -.00000270  00000+0  00000+0 0  9991
2 26900   6.1041  71.8507 0004514   4.8045  19.6883  1.00271994 90641
INTELSAT 904 (IS-904)   
1 27380U 02007A   26162.43088535 -.00000213  00000+0  00000+0 0  9997
2 27380   6.9050  69.2520 0006582   2.4614 311.6923  1.00272051 51700
DIRECTV 5 (TEMPO 1)     
1 27426U 02023A   26162.67272016 -.00000043  00000+0  00000+0 0  9992
2 27426   4.8630  75.3774 0003246  17.7404 298.9727  1.00271407 88063
INTELSAT 905 (IS-905)   
1 27438U 02027A   26162.51202027  .00000107  00000+0  00000+0 0  9997
2 27438   6.7387  69.8665 0003856  17.4003 219.6999  1.00271458 51306
GALAXY 3C (G-3C)        
1 27445U 02030A   26162.60444727 -.00000138  00000+0  00000+0 0  9999
2 27445   3.7160  78.0500 0001634  34.4673 270.1826  1.00271150 46432
INTELSAT 906 (IS-906)   
1 27513U 02041A   26162.77846377  .00000026  00000+0  00000+0 0  9997
2 27513   5.7896  72.9885 0004667   1.3969 170.1093  1.00271853 86973
GALAXY 13 (HORIZONS-1)  
1 27954U 03044A   26162.66474681  .00000149  00000+0  00000+0 0  9999
2 27954   1.4057  83.9289 0002126 354.6866 270.7168  1.00274747 46513
INTELSAT 10-02          
1 28358U 04022A   26162.69430027  .00000005  00000+0  00000+0 0  9995
2 28358   0.0129 326.6782 0000243 212.8182 329.4806  1.00271147 80505
DIRECTV 8               
1 28659U 05019A   26162.67090015  .00000018  00000+0  00000+0 0  9997
2 28659   0.0167  54.0538 0002833  29.3774 299.0562  1.00270660 77019
GALAXY 28 (G-28)        
1 28702U 05022A   26162.68910023 -.00000185  00000+0  00000+0 0  9997
2 28702   3.2851  79.0001 0002860 358.6263  43.3797  1.00271775 51926
GALAXY 16 (G-16)        
1 29236U 06023A   26162.67488684 -.00000110  00000+0  00000+0 0  9992
2 29236   0.0459 150.6084 0002432 295.7384 317.6323  1.00270854 72916
DIRECTV 9S              
1 29494U 06043A   26162.67445352 -.00000098  00000+0  00000+0 0  9990
2 29494   2.4058  80.9664 0004900   9.6032 311.0637  1.00270989 51323
GALAXY 17 (G-17)        
1 31307U 07016B   26162.60635396 -.00000191  00000+0  00000+0 0  9993
2 31307   2.9574  79.9686 0004775  19.4204 293.8533  1.00270447 69745
INTELSAT 11 (IS-11)     
1 32253U 07044B   26162.65287340 -.00000268  00000+0  00000+0 0  9997
2 32253   3.5503  78.7348 0002072  88.5033 117.9596  0.99053035 68396
HORIZONS-2              
1 32388U 07063B   26162.53727065 -.00000238  00000+0  00000+0 0  9994
2 32388   2.5868  80.6926 0003816 358.2929 300.5423  1.00270448 67750
DIRECTV 11              
1 32729U 08013A   26162.60358060 -.00000109  00000+0  00000+0 0  9999
2 32729   0.0126 263.3490 0000365  89.6842  25.0254  1.00270690 45532
GALAXY 18 (G-18)        
1 32951U 08024A   26162.67012015  .00000042  00000+0  00000+0 0  9997
2 32951   0.0007   0.4303 0002606  78.7540 299.0673  1.00270179 45792
INTELSAT 25 (IS-25)     
1 33153U 08034A   26162.72737116 -.00000269  00000+0  00000+0 0  9997
2 33153   2.6949  80.4340 0003032  55.7917 171.6349  0.99037401 65632
GALAXY 19 (G-19)        
1 33376U 08045A   26162.67523352 -.00000122  00000+0  00000+0 0  9993
2 33376   0.0161 301.8034 0002581 139.9841 324.3216  1.00270649 64844
FM-5                    
1 35493U 09034A   26162.82002647 -.00000183  00000+0  00000+0 0  9997
2 35493   0.0159 298.0771 0000826  15.1236 156.0187  1.00268151 46595
INTELSAT 14 (IS-14)     
1 36097U 09064A   26162.82817316 -.00000257  00000+0  00000+0 0  9990
2 36097   0.0158   4.8041 0002267  65.8632  82.6585  1.00271171 60555
INTELSAT 15 (IS-15)     
1 36106U 09067A   26162.84621367 -.00000169  00000+0  00000+0 0  9997
2 36106   0.0102  20.0946 0002111  64.1734 205.7063  1.00271435 41171
DIRECTV 12              
1 36131U 09075A   26162.60280060 -.00000086  00000+0  00000+0 0  9997
2 36131   0.0407 158.0270 0000414 221.8609 354.3436  1.00269831 46498
INTELSAT 16 (IS-16)     
1 36397U 10006A   26162.53675065 -.00000228  00000+0  00000+0 0  9990
2 36397   0.0095 321.8828 0001902 135.4071 279.6284  1.00271512 59594
XM-5                    
1 37185U 10053A   26162.60037394 -.00000006  00000+0  00000+0 0  9997
2 37185   0.0626 274.0505 0002924 282.8150 164.0155  1.00272357 57423
INTELSAT 17 (IS-17)     
1 37238U 10065B   26162.73880976  .00000015  00000+0  00000+0 0  9994
2 37238   0.0008  62.4922 0002582  25.6207 143.9353  1.00270723 53195
INTELSAT 28 (IS-28)     
1 37392U 11016A   26162.68823358 -.00000209  00000+0  00000+0 0  9993
2 37392   1.7912  82.6858 0003661   3.0792  30.3264  1.00271188 53239
INTELSAT 18 (IS-18)     
1 37834U 11056A   26162.80136751  .00000069  00000+0  00000+0 0  9999
2 37834   0.0255 281.9424 0002133 175.2796 271.4210  1.00271269 53750
INTELSAT 22 (IS-22)     
1 38098U 12011A   26162.74112698  .00000000  00000+0  00000+0 0  9996
2 38098   0.0317  41.8102 0001518  51.9156 145.2370  1.00271048  7135
INTELSAT 19 (IS-19)     
1 38356U 12030A   26162.63169925 -.00000040  00000+0  00000+0 0  9992
2 38356   0.0179 344.0714 0002925 104.5654 204.7579  1.00271818 50399
INTELSAT 20 (IS-20)     
1 38740U 12043A   26162.77933044  .00000000  00000+0  00000+0 0  9994
2 38740   0.0310  60.7412 0002089 114.2821  74.1584  1.00273014 50693
